EWS-G1 (GOES 13)        
1 29155U 06018A   24091.54113616 -.00000044  00000+0  00000+0 0  9997
2 29155   2.4213  86.1545 0087705 252.6589 239.5104  0.99157280 65397
DMSP 5D-3 F17 (USA 191) 
1 29522U 06050A   24091.51620737  .00000303  00000+0  18084-3 0  9997
2 29522  98.7484 103.6859 0009694 194.5869 165.5026 14.14428136898211
FENGYUN 3A              
1 32958U 08026A   24091.47378576  .00000296  00000+0  16217-3 0  9992
2 32958  98.5964  40.8735 0007715 301.8472  58.1953 14.19045238820932
FENGYUN 2E              
1 33463U 08066A   24091.16855071 -.00000068  00000+0  00000+0 0  9991
2 33463   7.4047  61.1635 0002344  14.3079 190.9361  0.99122361 55981
NOAA 19                 
1 33591U 09005A   24091.55070088  .00000267  00000+0  16754-3 0  9994
2 33591  99.0562 146.5025 0014524 148.1613 212.0439 14.12958755780662
GOES 14                 
1 35491U 09033A   24090.89917569 -.00000058  00000+0  00000+0 0  9998
2 35491   0.1537 117.4534 0002978 295.5380 350.9701  1.00270886 54009
DMSP 5D-3 F18 (USA 210) 
1 35951U 09057A   24091.50290765  .00000498  00000+0  28471-3 0  9999
2 35951  98.8081  67.9272 0011876  32.9813 327.2098 14.14045297745386
EWS-G2 (GOES 15)        
1 36411U 10008A   24090.86934403  .00000047  00000+0  00000+0 0  9995
2 36411   0.0979  94.1475 0002382 198.7174 270.0238  1.00272571 51535
COMS 1                  
1 36744U 10032A   24090.87469469 -.00000336  00000+0  00000+0 0  9999
2 36744   2.7252  85.5381 0001006 287.1098 259.1231  1.00272413 42982
FENGYUN 3B              
1 37214U 10059A   24091.55733510  .00000162  00000+0  10848-3 0  9999
2 37214  99.0638 118.5386 0021355 313.8812 198.0402 14.14464759693274
SUOMI NPP               
1 37849U 11061A   24091.51005885  .00000204  00000+0  11766-3 0  9997
2 37849  98.7164  30.6793 0001583 101.4839 258.6515 14.19539978643842
FENGYUN 2F              
1 38049U 12002A   24090.94024711 -.00000348  00000+0  00000+0 0  9996
2 38049   5.3987  73.8803 0002872  50.9113 154.4479  1.00278412 44776
METEOSAT-10 (MSG-3)     
1 38552U 12035B   24090.92084431  .00000004  00000+0  00000+0 0  9992
2 38552   2.7888  60.2677 0001841 308.7596 151.4465  1.00276177 42753
METOP-B                 
1 38771U 12049A   24091.46608810  .00000205  00000+0  11325-3 0  9992
2 38771  98.6360 150.4030 0000653 125.4204 234.7035 14.21495631598502
INSAT-3D                
1 39216U 13038B   24091.44337477 -.00000150  00000+0  00000+0 0  9996
2 39216   0.0560  84.5200 0001766 231.4417 115.0455  1.00272571 39205
FENGYUN 3C              
1 39260U 13052A   24091.52068555  .00000196  00000+0  11977-3 0  9996
2 39260  98.4301  95.2449 0010910 184.9700 175.1368 14.16170080544338
METEOR-M 2              
1 40069U 14037A   24091.50313050  .00000269  00000+0  14333-3 0  9990
2 40069  98.4360  89.2215 0004947 214.7844 145.3011 14.20920650504599
HIMAWARI-8              
1 40267U 14060A   24091.15279918 -.00000269  00000+0  00000+0 0  9994
2 40267   0.0263 158.0915 0000971 249.6929 336.8989  1.00270333 34764
FENGYUN 2G              
1 40367U 14090A   24090.86516723 -.00000294  00000+0  00000+0 0  9991
2 40367   3.5883  82.3991 0002235  75.7878  81.4884  1.00279730 33890
METEOSAT-11 (MSG-4)     
1 40732U 15034A   24091.17410250  .00000069  00000+0  00000+0 0  9998
2 40732   1.2002  66.8144 0001151 232.2366 321.8241  1.00273978 31916
ELEKTRO-L 2             
1 41105U 15074A   24090.68799285 -.00000107  00000+0  00000+0 0  9994
2 41105   4.6401  80.3805 0001962 224.3426 117.0218  1.00271240 30395
INSAT-3DR               
1 41752U 16054A   24090.88033291 -.00000070  00000+0  00000+0 0  9990
2 41752   0.0910  87.2244 0011230 190.7256 301.7150  1.00272226 27711
HIMAWARI-9              
1 41836U 16064A   24091.20674351 -.00000268  00000+0  00000+0 0  9998
2 41836   0.0209 104.4524 0000939 277.0411  22.7627  1.00273397 27207
GOES 16                 
1 41866U 16071A   24091.47211542 -.00000242  00000+0  00000+0 0  9999
2 41866   0.0367 278.5590 0000816 129.4591 236.0556  1.00272645 26995
FENGYUN 4A              
1 41882U 16077A   24090.90405787 -.00000196  00000+0  00000+0 0  9994
2 41882   0.2582  81.1637 0008071 348.9302 171.0549  1.00278229 26829
CYGFM05                 
1 41884U 16078A   24091.23224791  .00013225  00000+0  51425-3 0  9995
2 41884  34.9535  73.9276 0013857 211.9252 148.0624 15.25126260404267
CYGFM04                 
1 41885U 16078B   24090.93898910  .00012865  00000+0  48800-3 0  9994
2 41885  34.9458  60.5769 0011687 232.1545 127.8112 15.25978890404205
CYGFM02                 
1 41886U 16078C   24091.17492587  .00014309  00000+0  53706-3 0  9998
2 41886  34.9581  61.5067 0014280 225.7162 134.2381 15.26281340404398
CYGFM01                 
1 41887U 16078D   24091.33086483  .00014448  00000+0  56635-3 0  9999
2 41887  34.9496  76.9498 0013669 208.1725 151.8251 15.24848799404231
CYGFM08                 
1 41888U 16078E   24090.35152814  .00010573  00000+0  40374-3 0  9991
2 41888  34.9484  72.0633 0014066 218.0995 141.8725 15.25759095404133
CYGFM07                 
1 41890U 16078G   24090.93397750  .00012573  00000+0  47555-3 0  9998
2 41890  34.9479  60.0730 0011266 231.1875 128.7834 15.26081197404213
CYGFM03                 
1 41891U 16078H   24091.22644459  .00014544  00000+0  55046-3 0  9997
2 41891  34.9536  59.3311 0012217 222.8721 137.1042 15.26027748404394
FENGYUN 3D              
1 43010U 17072A   24091.47972911  .00000226  00000+0  12943-3 0  9992
2 43010  98.9029  45.7145 0001425 154.9599 205.1645 14.19307658330392
NOAA 20 (JPSS-1)        
1 43013U 17073A   24091.53197673  .00000200  00000+0  11195-3 0  9997
2 43013  98.7038  30.7620 0007653 331.0031  29.0720 14.21253901329886
GOES 17                 
1 43226U 18022A   24091.57109687 -.00000085  00000+0  00000+0 0  9991
2 43226   0.0447  18.9782 0000998 338.0458 293.3139  1.00271798 22331
FENGYUN 2H              
1 43491U 18050A   24090.88463493 -.00000119  00000+0  00000+0 0  9995
2 43491   0.9382  87.7569 0001150   5.1616 133.2680  1.00276124 21338
METOP-C                 
1 43689U 18087A   24091.50250832  .00000202  00000+0  11217-3 0  9993
2 43689  98.6879 151.7183 0001408 321.5511  38.5566 14.21507370280087
GEO-KOMPSAT-2A          
1 43823U 18100A   24091.31160733 -.00000337  00000+0  00000+0 0  9992
2 43823   0.0498  30.9608 0002085  32.3122   6.3262  1.00271914 19562
METEOR-M2 2             
1 44387U 19038A   24091.50189957  .00000121  00000+0  72555-4 0  9998
2 44387  98.8197  60.4523 0001530 140.2313 219.8977 14.23865833246337
ARKTIKA-M 1             
1 47719U 21016A   24091.49035620  .00000138  00000+0  00000+0 0  9993
2 47719  63.1357 160.6180 6918239 268.8696  18.0817  2.00604485 22592
FENGYUN 3E              
1 49008U 21062A   24091.54341686  .00000065  00000+0  51545-4 0  9999
2 49008  98.7336  93.8638 0000520 224.5690 135.5445 14.19739089141971
GOES 18                 
1 51850U 22021A   24091.54290806  .00000102  00000+0  00000+0 0  9997
2 51850   0.0364  26.1880 0000370 320.4307 261.2372  1.00273721  7708
NOAA 21 (JPSS-2)        
1 54234U 22150A   24090.92757082  .00000312  00000+0  16894-3 0  9999
2 54234  98.7460  29.7619 0001374  61.4996 298.6318 14.19539074 71871
METEOSAT-12 (MTG-I1)    
1 54743U 22170C   24090.92067028  .00000000  00000+0  00000+0 0  9992
2 54743   0.4111  20.0177 0001105  19.6890 120.1072  1.00269648  4877
TIANMU-1 03             
1 55973U 23039A   24091.47136636  .00011133  00000+0  45528-3 0  9993
2 55973  97.4593 242.3983 0012632  26.9468 333.2423 15.24445267 57011
TIANMU-1 04             
1 55974U 23039B   24091.51966440  .00011064  00000+0  45322-3 0  9998
2 55974  97.4513 242.0903 0009700  27.2413 332.9331 15.24420499 57013
TIANMU-1 05             
1 55975U 23039C   24091.50533133  .00011849  00000+0  48557-3 0  9991
2 55975  97.4562 242.3485 0005792  25.1731 334.9787 15.24414594 57008
TIANMU-1 06             
1 55976U 23039D   24091.55539064  .00011775  00000+0  48265-3 0  9990
2 55976  97.4577 242.4996 0005326  28.5495 331.6033 15.24411883 57017
METEOR-M2 3             
1 57166U 23091A   24091.46717745  .00000060  00000+0  45391-4 0  9998
2 57166  98.7220 146.8064 0003971  12.2561 347.8714 14.23879686 39562
TIANMU-1 07             
1 57399U 23101A   24091.50206214  .00006812  00000+0  35741-3 0  9995
2 57399  97.3716 150.8708 0006301 100.6410 259.5533 15.16040042 38656
TIANMU-1 08             
1 57400U 23101B   24091.47127233  .00006138  00000+0  32324-3 0  9992
2 57400  97.3705 150.7254 0009038 104.2741 255.9496 15.15928970 38640
TIANMU-1 09             
1 57401U 23101C   24091.51905486  .00007287  00000+0  38209-3 0  9996
2 57401  97.3658 150.6626 0008982  98.9962 261.2288 15.16022960 38656
TIANMU-1 10             
1 57402U 23101D   24091.48489382  .00006470  00000+0  33995-3 0  9995
2 57402  97.3739 150.8237 0011329  98.7458 261.5059 15.15970263 38649
FENGYUN 3F              
1 57490U 23111A   24091.50093328  .00000140  00000+0  87117-4 0  9991
2 57490  98.7754 161.3311 0000649  50.7250 309.3984 14.19785369 34243
TIANMU-1 11             
1 58645U 23205A   24091.56131517  .00006323  00000+0  34437-3 0  9992
2 58645  97.4120 118.6728 0009739 305.1137  54.9182 15.14724496 14764
TIANMU-1 12             
1 58646U 23205B   24091.50863410  .00005815  00000+0  31898-3 0  9994
2 58646  97.4104 118.5724 0008468 302.4110  57.6303 15.14514362 14743
TIANMU-1 13             
1 58647U 23205C   24091.53815997  .00006104  00000+0  33922-3 0  9997
2 58647  97.4137 118.5723 0008567 293.8373  66.1960 15.14024583 14748
TIANMU-1 14             
1 58648U 23205D   24091.52199381  .00005384  00000+0  29984-3 0  9991
2 58648  97.4061 118.4973 0008883 294.5237  65.5068 15.14003709 14748
